{"type": "FeatureCollection", "features": [{"type": "Feature", "properties": {"norad_id": 28054, "name": "DMSP 5D-3 F16 (USA 172)", "group": "weather", "lat": -38.337794124243956, "lon": 173.20544286760168, "alt_km": 852.5848200139535, "timestamp": "2025-12-08T23:34:03.612114+00:00", "meta": {"OBJECT_NAME": "DMSP 5D-3 F16 (USA 172)", "OBJECT_ID": "2003-048A", "EPOCH": "2025-12-08T14:33:50.397120", "MEAN_MOTION": 14.14422177, "ECCENTRICITY": 0.00066574, "INCLINATION": 99.0048, "RA_OF_ASC_NODE": 0.0313, "ARG_OF_PERICENTER": 333.6844, "MEAN_ANOMALY": 136.0069, "EPHEMERIS_TYPE": 0, "CLASSIFICATION_TYPE": "U", "NORAD_CAT_ID": 28054, "ELEMENT_SET_NO": 999, "REV_AT_EPOCH": 14254, "BSTAR": 0.00016073135, "MEAN_MOTION_DOT": 2.62e-06, "MEAN_MOTION_DDOT": 0}, "tle": {"line1": "1 28054U 03048A   25342.60683330  .00000262  00000+0  16073-3 0  9998", "line2": "2 28054  99.0048   0.0313 0006657 333.6844 136.0069 14.14422177142547"}}, "geometry": {"type": "Point", "coordinates": [173.20544286760168, -38.337794124243956]}}, {"type": "Feature", "properties": {"norad_id": 28912, "name": "METEOSAT-9 (MSG-2)", "group": "weather", "lat": 7.826738173738084, "lon": 116.79261015729018, "alt_km": 35794.69360558238, "timestamp": "2025-12-08T23:34:03.612183+00:00", "meta": {"OBJECT_NAME": "METEOSAT-9 (MSG-2)", "OBJECT_ID": "2005-049B", "EPOCH": "2025-12-07T20:41:55.425120", "MEAN_MOTION": 1.00273689, "ECCENTRICITY": 0.00039018, "INCLINATION": 8.9285, "RA_OF_ASC_NODE": 56.0211, "ARG_OF_PERICENTER": 189.463, "MEAN_ANOMALY": 187.4925, "EPHEMERIS_TYPE": 0, "CLASSIFICATION_TYPE": "U", "NORAD_CAT_ID": 28912, "ELEMENT_SET_NO": 999, "REV_AT_EPOCH": 508, "BSTAR": 0, "MEAN_MOTION_DOT": 1.24e-06, "MEAN_MOTION_DDOT": 0}, "tle": {"line1": "1 28912U 05049B   25341.86244705  .00000124  00000+0  00000+0 0  9996", "line2": "2 28912   8.9285  56.0211 0003901 189.4630 187.4925  1.00273689  5080"}}, "geometry": {"type": "Point", "coordinates": [116.79261015729018, 7.826738173738084]}}, {"type": "Feature", "properties": {"norad_id": 29522, "name": "DMSP 5D-3 F17 (USA 191)", "group": "weather", "lat": 27.008082455290353, "lon": 172.94613136550973, "alt_km": 840.7686167328175, "timestamp": "2025-12-08T23:34:03.612200+00:00", "meta": {"OBJECT_NAME": "DMSP 5D-3 F17 (USA 191)", "OBJECT_ID": "2006-050A", "EPOCH": "2025-12-08T14:21:44.354592", "MEAN_MOTION": 14.14917086, "ECCENTRICITY": 0.00092683, "INCLINATION": 98.7393, "RA_OF_ASC_NODE": 348.0738, "ARG_OF_PERICENTER": 237.6389, "MEAN_ANOMALY": 122.3888, "EPHEMERIS_TYPE": 0, "CLASSIFICATION_TYPE": "U", "NORAD_CAT_ID": 29522, "ELEMENT_SET_NO": 999, "REV_AT_EPOCH": 98546, "BSTAR": 0.0001865617, "MEAN_MOTION_DOT": 3.17e-06, "MEAN_MOTION_DDOT": 0}, "tle": {"line1": "1 29522U 06050A   25342.59843003  .00000317  00000+0  18656-3 0  9998", "line2": "2 29522  98.7393 348.0738 0009268 237.6389 122.3888 14.14917086985462"}}, "geometry": {"type": "Point", "coordinates": [172.94613136550973, 27.008082455290353]}}, {"type": "Feature", "properties": {"norad_id": 32958, "name": "FENGYUN 3A", "group": "weather", "lat": 15.138191190221152, "lon": 104.95352945941757, "alt_km": 833.1491240392743, "timestamp": "2025-12-08T23:34:03.612214+00:00", "meta": {"OBJECT_NAME": "FENGYUN 3A", "OBJECT_ID": "2008-026A", "EPOCH": "2025-12-08T14:20:09.902112", "MEAN_MOTION": 14.19512702, "ECCENTRICITY": 0.00080907, "INCLINATION": 98.6692, "RA_OF_ASC_NODE": 282.2115, "ARG_OF_PERICENTER": 323.4292, "MEAN_ANOMALY": 36.6331, "EPHEMERIS_TYPE": 0, "CLASSIFICATION_TYPE": "U", "NORAD_CAT_ID": 32958, "ELEMENT_SET_NO": 999, "REV_AT_EPOCH": 90836, "BSTAR": 0.0001449676, "MEAN_MOTION_DOT": 2.62e-06, "MEAN_MOTION_DDOT": 0}, "tle": {"line1": "1 32958U 08026A   25342.59733683  .00000262  00000+0  14497-3 0  9990", "line2": "2 32958  98.6692 282.2115 0008090 323.4292  36.6331 14.19512702908362"}}, "geometry": {"type": "Point", "coordinates": [104.95352945941757, 15.138191190221152]}}, {"type": "Feature", "properties": {"norad_id": 35491, "name": "GOES 14", "group": "weather", "lat": -1.0142568929351619, "lon": -36.76894222379619, "alt_km": 35783.79173855798, "timestamp": "2025-12-08T23:34:03.612229+00:00", "meta": {"OBJECT_NAME": "GOES 14", "OBJECT_ID": "2009-033A", "EPOCH": "2025-12-08T12:17:06.800064", "MEAN_MOTION": 1.00273082, "ECCENTRICITY": 0.00040878, "INCLINATION": 1.1883, "RA_OF_ASC_NODE": 85.4533, "ARG_OF_PERICENTER": 154.4178, "MEAN_ANOMALY": 273.6185, "EPHEMERIS_TYPE": 0, "CLASSIFICATION_TYPE": "U", "NORAD_CAT_ID": 35491, "ELEMENT_SET_NO": 999, "REV_AT_EPOCH": 468, "BSTAR": 0, "MEAN_MOTION_DOT": -6.6e-07, "MEAN_MOTION_DDOT": 0}, "tle": {"line1": "1 35491U 09033A   25342.51188426 -.00000066  00000+0  00000+0 0  9999", "line2": "2 35491   1.1883  85.4533 0004087 154.4178 273.6185  1.00273082  4685"}}, "geometry": {"type": "Point", "coordinates": [-36.76894222379619, -1.0142568929351619]}}, {"type": "Feature", "properties": {"norad_id": 35951, "name": "DMSP 5D-3 F18 (USA 210)", "group": "weather", "lat": 21.556403038928384, "lon": -44.14048500732261, "alt_km": 837.2813110968145, "timestamp": "2025-12-08T23:34:03.612242+00:00", "meta": {"OBJECT_NAME": "DMSP 5D-3 F18 (USA 210)", "OBJECT_ID": "2009-057A", "EPOCH": "2025-12-08T13:16:51.148992", "MEAN_MOTION": 14.14765582, "ECCENTRICITY": 0.00121093, "INCLINATION": 98.883, "RA_OF_ASC_NODE": 318.9752, "ARG_OF_PERICENTER": 73.6566, "MEAN_ANOMALY": 286.5938, "EPHEMERIS_TYPE": 0, "CLASSIFICATION_TYPE": "U", "NORAD_CAT_ID": 35951, "ELEMENT_SET_NO": 999, "REV_AT_EPOCH": 83263, "BSTAR": 0.00027150597, "MEAN_MOTION_DOT": 4.79e-06, "MEAN_MOTION_DDOT": 0}, "tle": {"line1": "1 35951U 09057A   25342.55336978  .00000479  00000+0  27151-3 0  9994", "line2": "2 35951  98.8830 318.9752 0012109  73.6566 286.5938 14.14765582832638"}}, "geometry": {"type": "Point", "coordinates": [-44.14048500732261, 21.556403038928384]}}, {"type": "Feature", "properties": {"norad_id": 36411, "name": "EWS-G2 (GOES 15)", "group": "weather", "lat": 0.5977087450139149, "lon": 132.87335649229618, "alt_km": 35801.752213170344, "timestamp": "2025-12-08T23:34:03.612256+00:00", "meta": {"OBJECT_NAME": "EWS-G2 (GOES 15)", "OBJECT_ID": "2010-008A", "EPOCH": "2025-12-08T13:53:50.559360", "MEAN_MOTION": 1.00268694, "ECCENTRICITY": 0.00059619, "INCLINATION": 0.8034, "RA_OF_ASC_NODE": 86.0568, "ARG_OF_PERICENTER": 173.0225, "MEAN_ANOMALY": 88.4081, "EPHEMERIS_TYPE": 0, "CLASSIFICATION_TYPE": "U", "NORAD_CAT_ID": 36411, "ELEMENT_SET_NO": 999, "REV_AT_EPOCH": 5772, "BSTAR": 0, "MEAN_MOTION_DOT": 4e-07, "MEAN_MOTION_DDOT": 0}, "tle": {"line1": "1 36411U 10008A   25342.57905740  .00000040  00000+0  00000+0 0  9999", "line2": "2 36411   0.8034  86.0568 0005961 173.0225  88.4081  1.00268694 57722"}}, "geometry": {"type": "Point", "coordinates": [132.87335649229618, 0.5977087450139149]}}, {"type": "Feature", "properties": {"norad_id": 36744, "name": "COMS 1", "group": "weather", "lat": 3.6777200265895185, "lon": -160.2656201426895, "alt_km": 35784.76132114095, "timestamp": "2025-12-08T23:34:03.612269+00:00", "meta": {"OBJECT_NAME": "COMS 1", "OBJECT_ID": "2010-032A", "EPOCH": "2025-12-08T14:12:48.741984", "MEAN_MOTION": 1.00271073, "ECCENTRICITY": 0.00011152, "INCLINATION": 4.331, "RA_OF_ASC_NODE": 78.0438, "ARG_OF_PERICENTER": 198.2391, "MEAN_ANOMALY": 142.693, "EPHEMERIS_TYPE": 0, "CLASSIFICATION_TYPE": "U", "NORAD_CAT_ID": 36744, "ELEMENT_SET_NO": 999, "REV_AT_EPOCH": 4917, "BSTAR": 0, "MEAN_MOTION_DOT": -3.43e-06, "MEAN_MOTION_DDOT": 0}, "tle": {"line1": "1 36744U 10032A   25342.59223081 -.00000343  00000+0  00000+0 0  9995", "line2": "2 36744   4.3310  78.0438 0001115 198.2391 142.6930  1.00271073 49175"}}, "geometry": {"type": "Point", "coordinates": [-160.2656201426895, 3.6777200265895185]}}, {"type": "Feature", "properties": {"norad_id": 37214, "name": "FENGYUN 3B", "group": "weather", "lat": -13.759684665659089, "lon": 25.15504966557999, "alt_km": 832.7051461985538, "timestamp": "2025-12-08T23:34:03.612281+00:00", "meta": {"OBJECT_NAME": "FENGYUN 3B", "OBJECT_ID": "2010-059A", "EPOCH": "2025-12-08T15:40:15.991968", "MEAN_MOTION": 14.14788235, "ECCENTRICITY": 0.00221823, "INCLINATION": 98.9915, "RA_OF_ASC_NODE": 22.6017, "ARG_OF_PERICENTER": 9.3703, "MEAN_ANOMALY": 102.0454, "EPHEMERIS_TYPE": 0, "CLASSIFICATION_TYPE": "U", "NORAD_CAT_ID": 37214, "ELEMENT_SET_NO": 999, "REV_AT_EPOCH": 78048, "BSTAR": 0.00012066476, "MEAN_MOTION_DOT": 1.88e-06, "MEAN_MOTION_DDOT": 0}, "tle": {"line1": "1 37214U 10059A   25342.65296287  .00000188  00000+0  12066-3 0  9997", "line2": "2 37214  98.9915  22.6017 0022182   9.3703 102.0454 14.14788235780481"}}, "geometry": {"type": "Point", "coordinates": [25.15504966557999, -13.759684665659089]}}, {"type": "Feature", "properties": {"norad_id": 37849, "name": "SUOMI NPP", "group": "weather", "lat": 55.62365857527798, "lon": 113.4089845375768, "alt_km": 820.1458813756772, "timestamp": "2025-12-08T23:34:03.612293+00:00", "meta": {"OBJECT_NAME": "SUOMI NPP", "OBJECT_ID": "2011-061A", "EPOCH": "2025-12-08T14:31:49.794816", "MEAN_MOTION": 14.19512483, "ECCENTRICITY": 0.00021044, "INCLINATION": 98.7767, "RA_OF_ASC_NODE": 279.9844, "ARG_OF_PERICENTER": 127.4661, "MEAN_ANOMALY": 232.6706, "EPHEMERIS_TYPE": 0, "CLASSIFICATION_TYPE": "U", "NORAD_CAT_ID": 37849, "ELEMENT_SET_NO": 999, "REV_AT_EPOCH": 73140, "BSTAR": 0.00012233612, "MEAN_MOTION_DOT": 2.14e-06, "MEAN_MOTION_DDOT": 0}, "tle": {"line1": "1 37849U 11061A   25342.60543744  .00000214  00000+0  12234-3 0  9990", "line2": "2 37849  98.7767 279.9844 0002104 127.4661 232.6706 14.19512483731403"}}, "geometry": {"type": "Point", "coordinates": [113.4089845375768, 55.62365857527798]}}]}